start=new Date('2021-10-09T00:00:00.000Z').valueOf();
sats=[{"SEMIMAJOR_AXIS":"6925.337","FILE":"3152020","MEAN_ELEMENT_THEORY":"SGP4","TLE_LINE1":"1 45198U 20012W   21281.76371833  .00001930  00000-0  14843-3 0  9990","RCS_SIZE":"LARGE","PERIAPSIS":"546.072","SITE":"AFETR","TLE_LINE2":"2 45198  53.0561  67.3365 0001631  90.0656 270.0520 15.06403774 91953","RA_OF_ASC_NODE":"67.3365","MEAN_MOTION":"15.06403774","COUNTRY_CODE":"US","OBJECT_TYPE":"PAYLOAD","DECAY_DATE":null,"EPOCH":"2021-10-08T18:19:45.263712","GP_ID":"186594454","INCLINATION":"53.0561","LAUNCH_DATE":"2020-02-17","REV_AT_EPOCH":"9195","MEAN_MOTION_DDOT":"0.0000000000000","NORAD_CAT_ID":"45198","REF_FRAME":"TEME","APOAPSIS":"548.332","OBJECT_NAME":"STARLINK-1154","PERIOD":"95.592","ARG_OF_PERICENTER":"90.0656","MEAN_MOTION_DOT":"0.00001930","CLASSIFICATION_TYPE":"U","OBJECT_ID":"2020-012W","ECCENTRICITY":"0.00016310","BSTAR":"0.00014843000000","TIME_SYSTEM":"UTC","ELEMENT_SET_NO":"999","MEAN_ANOMALY":"270.0520","CENTER_NAME":"EARTH","EPHEMERIS_TYPE":"0"},{"MEAN_ANOMALY":"271.0116","TIME_SYSTEM":"UTC","ELEMENT_SET_NO":"999","CENTER_NAME":"EARTH","EPHEMERIS_TYPE":"0","ARG_OF_PERICENTER":"89.1058","PERIOD":"95.592","MEAN_MOTION_DOT":"0.00001745","REF_FRAME":"TEME","NORAD_CAT_ID":"45199","APOAPSIS":"548.309","OBJECT_NAME":"STARLINK-1197","OBJECT_ID":"2020-012X","ECCENTRICITY":"0.00016130","BSTAR":"0.00013599000000","CLASSIFICATION_TYPE":"U","OBJECT_TYPE":"PAYLOAD","MEAN_MOTION":"15.06407064","RA_OF_ASC_NODE":"67.0225","COUNTRY_CODE":"US","LAUNCH_DATE":"2020-02-17","REV_AT_EPOCH":"9108","MEAN_MOTION_DDOT":"0.0000000000000","DECAY_DATE":null,"EPOCH":"2021-10-08T20:00:35.917056","GP_ID":"186566684","INCLINATION":"53.0554","MEAN_ELEMENT_THEORY":"SGP4","FILE":"3151653","SEMIMAJOR_AXIS":"6925.327","TLE_LINE1":"1 45199U 20012X   21281.83374904  .00001745  00000-0  13599-3 0  9992","RCS_SIZE":"LARGE","PERIAPSIS":"546.075","SITE":"AFETR","TLE_LINE2":"2 45199  53.0554  67.0225 0001613  89.1058 271.0116 15.06407064 91085"},{"INCLINATION":"53.0555","GP_ID":"186566687","EPOCH":"2021-10-08T18:35:41.002368","DECAY_DATE":null,"MEAN_MOTION_DDOT":"0.0000000000000","REV_AT_EPOCH":"9107","LAUNCH_DATE":"2020-02-17","COUNTRY_CODE":"US","RA_OF_ASC_NODE":"67.2833","MEAN_MOTION":"15.06388498","OBJECT_TYPE":"PAYLOAD","SITE":"AFETR","TLE_LINE2":"2 45201  53.0555  67.2833 0001744  92.5478 267.5710 15.06388498 91074","PERIAPSIS":"546.041","RCS_SIZE":"LARGE","TLE_LINE1":"1 45201U 20012Z   21281.77478012  .00000007  00000-0  19382-4 0  9991","SEMIMAJOR_AXIS":"6925.384","FILE":"3151653","MEAN_ELEMENT_THEORY":"SGP4","EPHEMERIS_TYPE":"0","CENTER_NAME":"EARTH","ELEMENT_SET_NO":"999","TIME_SYSTEM":"UTC","MEAN_ANOMALY":"267.5710","CLASSIFICATION_TYPE":"U","BSTAR":"0.00001938200000","ECCENTRICITY":"0.00017440","OBJECT_ID":"2020-012Z","OBJECT_NAME":"STARLINK-1199","APOAPSIS":"548.457","NORAD_CAT_ID":"45201","REF_FRAME":"TEME","MEAN_MOTION_DOT":"0.00000007","ARG_OF_PERICENTER":"92.5478","PERIOD":"95.593"},{"CENTER_NAME":"EARTH","EPHEMERIS_TYPE":"0","MEAN_ANOMALY":"252.9872","TIME_SYSTEM":"UTC","ELEMENT_SET_NO":"999","ECCENTRICITY":"0.00018760","BSTAR":"0.00044683000000","OBJECT_ID":"2020-012AA","CLASSIFICATION_TYPE":"U","MEAN_MOTION_DOT":"0.00006719","ARG_OF_PERICENTER":"107.1323","PERIOD":"95.475","APOAPSIS":"542.839","OBJECT_NAME":"STARLINK-1203","NORAD_CAT_ID":"45202","REF_FRAME":"TEME","REV_AT_EPOCH":"9086","MEAN_MOTION_DDOT":"0.0000000000000","LAUNCH_DATE":"2020-02-17","GP_ID":"186566748","INCLINATION":"52.9821","DECAY_DATE":null,"EPOCH":"2021-10-08T20:47:14.457120","OBJECT_TYPE":"PAYLOAD","COUNTRY_CODE":"US","RA_OF_ASC_NODE":"82.1613","MEAN_MOTION":"15.08252871","SITE":"AFETR","TLE_LINE2":"2 45202  52.9821  82.1613 0001876 107.1323 252.9872 15.08252871 90869","TLE_LINE1":"1 45202U 20012AA  21281.86613955  .00006719  00000-0  44683-3 0  9996","PERIAPSIS":"540.242","RCS_SIZE":"LARGE","FILE":"3151656","MEAN_ELEMENT_THEORY":"SGP4","SEMIMAJOR_AXIS":"6919.676"},{"TLE_LINE2":"2 45203  53.0522  58.8019 0002086  28.2302 331.8811 15.31785550 92047","SITE":"AFETR","TLE_LINE1":"1 45203U 20012AB  21281.67644246  .00004647  00000-0  16101-3 0  9995","RCS_SIZE":"LARGE","PERIAPSIS":"469.058","FILE":"3152020","MEAN_ELEMENT_THEORY":"SGP4","SEMIMAJOR_AXIS":"6848.622","REV_AT_EPOCH":"9204","MEAN_MOTION_DDOT":"0.0000000000000","LAUNCH_DATE":"2020-02-17","GP_ID":"186594955","INCLINATION":"53.0522","DECAY_DATE":null,"EPOCH":"2021-10-08T16:14:04.628544","OBJECT_TYPE":"PAYLOAD","COUNTRY_CODE":"US","RA_OF_ASC_NODE":"58.8019","MEAN_MOTION":"15.31785550","ECCENTRICITY":"0.00020860","BSTAR":"0.00016101000000","OBJECT_ID":"2020-012AB","CLASSIFICATION_TYPE":"U","MEAN_MOTION_DOT":"0.00004647","PERIOD":"94.008","ARG_OF_PERICENTER":"28.2302","APOAPSIS":"471.916","OBJECT_NAME":"STARLINK-1204","REF_FRAME":"TEME","NORAD_CAT_ID":"45203","CENTER_NAME":"EARTH","EPHEMERIS_TYPE":"0","MEAN_ANOMALY":"331.8811","TIME_SYSTEM":"UTC","ELEMENT_SET_NO":"999"},{"REF_FRAME":"TEME","NORAD_CAT_ID":"45204","APOAPSIS":"548.367","OBJECT_NAME":"STARLINK-1206","PERIOD":"95.592","ARG_OF_PERICENTER":"93.3863","MEAN_MOTION_DOT":"0.00002764","CLASSIFICATION_TYPE":"U","OBJECT_ID":"2020-012AC","ECCENTRICITY":"0.00016780","BSTAR":"0.00020436000000","TIME_SYSTEM":"UTC","ELEMENT_SET_NO":"999","MEAN_ANOMALY":"266.7318","CENTER_NAME":"EARTH","EPHEMERIS_TYPE":"0","SEMIMAJOR_AXIS":"6925.340","MEAN_ELEMENT_THEORY":"SGP4","FILE":"3152020","TLE_LINE1":"1 45204U 20012AC  21281.73423484  .00002764  00000-0  20436-3 0  9996","RCS_SIZE":"LARGE","PERIAPSIS":"546.043","SITE":"AFETR","TLE_LINE2":"2 45204  53.0537  67.4464 0001678  93.3863 266.7318 15.06402829 92028","RA_OF_ASC_NODE":"67.4464","MEAN_MOTION":"15.06402829","COUNTRY_CODE":"US","OBJECT_TYPE":"PAYLOAD","DECAY_DATE":null,"EPOCH":"2021-10-08T17:37:17.890176","GP_ID":"186593707","INCLINATION":"53.0537","LAUNCH_DATE":"2020-02-17","REV_AT_EPOCH":"9202","MEAN_MOTION_DDOT":"0.0000000000000"},{"OBJECT_NAME":"STARLINK-1208","APOAPSIS":"548.383","REF_FRAME":"TEME","NORAD_CAT_ID":"45205","MEAN_MOTION_DOT":"-0.00000262","PERIOD":"95.592","ARG_OF_PERICENTER":"93.2340","CLASSIFICATION_TYPE":"U","BSTAR":"0.00000132550000","ECCENTRICITY":"0.00016850","OBJECT_ID":"2020-012AD","ELEMENT_SET_NO":"999","TIME_SYSTEM":"UTC","MEAN_ANOMALY":"266.8842","EPHEMERIS_TYPE":"0","CENTER_NAME":"EARTH","SEMIMAJOR_AXIS":"6925.351","MEAN_ELEMENT_THEORY":"SGP4","FILE":"3152020","SITE":"AFETR","TLE_LINE2":"2 45205  53.0545  67.0561 0001685  93.2340 266.8842 15.06399193 92043","RCS_SIZE":"LARGE","PERIAPSIS":"546.049","TLE_LINE1":"1 45205U 20012AD  21281.82268668 -.00000262  00000-0  13255-5 0  9993","COUNTRY_CODE":"US","RA_OF_ASC_NODE":"67.0561","MEAN_MOTION":"15.06399193","OBJECT_TYPE":"PAYLOAD","INCLINATION":"53.0545","GP_ID":"186593957","EPOCH":"2021-10-08T19:44:40.129152","DECAY_DATE":null,"MEAN_MOTION_DDOT":"0.0000000000000","REV_AT_EPOCH":"9204","LAUNCH_DATE":"2020-02-17"},{"EPHEMERIS_TYPE":"0","CENTER_NAME":"EARTH","MEAN_ANOMALY":"250.8789","ELEMENT_SET_NO":"999","TIME_SYSTEM":"UTC","BSTAR":"0.00009452800000","ECCENTRICITY":"0.00011820","OBJECT_ID":"2020-012AE","CLASSIFICATION_TYPE":"U","MEAN_MOTION_DOT":"0.00001126","PERIOD":"95.593","ARG_OF_PERICENTER":"109.2328","OBJECT_NAME":"STARLINK-1209","APOAPSIS":"548.080","REF_FRAME":"TEME","NORAD_CAT_ID":"45206","MEAN_MOTION_DDOT":"0.0000000000000","REV_AT_EPOCH":"9133","LAUNCH_DATE":"2020-02-17","INCLINATION":"53.0560","GP_ID":"186594208","EPOCH":"2021-10-08T17:13:23.651904","DECAY_DATE":null,"OBJECT_TYPE":"PAYLOAD","COUNTRY_CODE":"US","RA_OF_ASC_NODE":"47.5382","MEAN_MOTION":"15.06384436","TLE_LINE2":"2 45206  53.0560  47.5382 0001182 109.2328 250.8789 15.06384436 91339","SITE":"AFETR","PERIAPSIS":"546.443","RCS_SIZE":"LARGE","TLE_LINE1":"1 45206U 20012AE  21281.71763486  .00001126  00000-0  94528-4 0  9990","MEAN_ELEMENT_THEORY":"SGP4","FILE":"3152020","SEMIMAJOR_AXIS":"6925.396"},{"LAUNCH_DATE":"2020-02-17","REV_AT_EPOCH":"9108","MEAN_MOTION_DDOT":"0.0000000000000","DECAY_DATE":null,"EPOCH":"2021-10-08T20:16:31.489824","GP_ID":"186566249","INCLINATION":"53.0544","OBJECT_TYPE":"PAYLOAD","RA_OF_ASC_NODE":"66.9563","MEAN_MOTION":"15.06395093","COUNTRY_CODE":"US","TLE_LINE1":"1 45207U 20012AF  21281.84480891 -.00000183  00000-0  65910-5 0  9998","RCS_SIZE":"LARGE","PERIAPSIS":"546.243","TLE_LINE2":"2 45207  53.0544  66.9563 0001423  96.4241 263.6911 15.06395093 91089","SITE":"AFETR","MEAN_ELEMENT_THEORY":"SGP4","FILE":"3151656","SEMIMAJOR_AXIS":"6925.364","CENTER_NAME":"EARTH","EPHEMERIS_TYPE":"0","MEAN_ANOMALY":"263.6911","TIME_SYSTEM":"UTC","ELEMENT_SET_NO":"999","OBJECT_ID":"2020-012AF","ECCENTRICITY":"0.00014230","BSTAR":"0.00000659100000","CLASSIFICATION_TYPE":"U","PERIOD":"95.592","ARG_OF_PERICENTER":"96.4241","MEAN_MOTION_DOT":"-0.00000183","REF_FRAME":"TEME","NORAD_CAT_ID":"45207","APOAPSIS":"548.214","OBJECT_NAME":"STARLINK-1210"},{"LAUNCH_DATE":"2020-02-17","REV_AT_EPOCH":"9193","MEAN_MOTION_DDOT":"0.0000000000000","DECAY_DATE":null,"EPOCH":"2021-10-08T19:14:12.198912","GP_ID":"186593207","INCLINATION":"52.9996","OBJECT_TYPE":"PAYLOAD","RA_OF_ASC_NODE":"67.1556","MEAN_MOTION":"15.05585143","COUNTRY_CODE":"US","TLE_LINE1":"1 45208U 20012AG  21281.80153008  .00000058  00000-0  23130-4 0  9999","RCS_SIZE":"LARGE","PERIAPSIS":"548.422","SITE":"AFETR","TLE_LINE2":"2 45208  52.9996  67.1556 0001862  96.4417 263.6783 15.05585143 91933","MEAN_ELEMENT_THEORY":"SGP4","FILE":"3152020","SEMIMAJOR_AXIS":"6927.847","CENTER_NAME":"EARTH","EPHEMERIS_TYPE":"0","MEAN_ANOMALY":"263.6783","TIME_SYSTEM":"UTC","ELEMENT_SET_NO":"999","OBJECT_ID":"2020-012AG","ECCENTRICITY":"0.00018620","BSTAR":"0.00002313000000","CLASSIFICATION_TYPE":"U","ARG_OF_PERICENTER":"96.4417","PERIOD":"95.644","MEAN_MOTION_DOT":"0.00000058","REF_FRAME":"TEME","NORAD_CAT_ID":"45208","APOAPSIS":"551.002","OBJECT_NAME":"STARLINK-1211"}];
